     3.00           N                   E                   RINEX VERSION / TYPE
BRD_USR             ESA                 20190115 051717  UTCPGM / RUN BY / DATE
 GAL   3.6500E+01  1.4844E-01  3.9673E-04  0.0000E+00       IONOSPHERIC CORR
GAUT  2.7939677238E-09-1.776356839E-15 172800 2036 GSTB   0 TIME SYSTEM CORR
GPGA -1.4551915228E-09-1.110223025E-14 172800 2036 GSTB   0 TIME SYSTEM CORR
                                                            END OF HEADER
E13 2019 01 15 02 50 00 3.817460383289E-04 5.115907697473E-13 0.000000000000E+00
     4.900000000000E+01-2.696875000000E+01 2.696898050915E-09 1.468281287626E+00
    -1.326203346252E-06 3.461268497631E-04 9.806826710701E-06 5.440603464127E+03
     1.830000000000E+05-1.490116119385E-08-9.908272658070E-01 2.607703208923E-08
     9.852292049681E-01 1.386562500000E+02-1.478193293461E+00-5.438797976338E-09
     1.960795960737E-10 2.580000000000E+02 2.036000000000E+03 0.000000000000E+00
     3.120000000000E+00 5.600000000000E+01-4.423782229424E-09 0.000000000000E+00
     1.842000000000E+05 0.000000000000E+00 0.000000000000E+00 0.000000000000E+00
E01 2019 01 15 03 00 00-5.210000090301E-04-8.157030606526E-12 0.000000000000E+00
     5.000000000000E+01 8.450000000000E+01 2.999053494045E-09 1.161588015615E+00
     3.848224878311E-06 8.074741344899E-05 4.328787326813E-06 5.440616273880E+03
     1.836000000000E+05-2.793967723846E-08-3.070848202799E+00-2.235174179077E-08
     9.900979674974E-01 2.643125000000E+02-5.767543643400E-01-5.713809431669E-09
     9.036090675161E-11 5.210000000000E+02 2.036000000000E+03 0.000000000000E+00
     3.120000000000E+00 0.000000000000E+00-4.656612873077E-09-5.122274160385E-09
     1.842850000000E+05 0.000000000000E+00 0.000000000000E+00 0.000000000000E+00
E03 2019 01 15 03 00 00-1.222958671860E-04-4.263256414561E-12 0.000000000000E+00
     5.000000000000E+01-3.706250000000E+01 3.338710499265E-09-1.090834367458E+00
    -1.767650246620E-06 2.580367727205E-04 8.773058652878E-06 5.440619050980E+03
     1.836000000000E+05 9.313225746155E-09 1.119772404112E+00 3.539025783539E-08
     9.524286930037E-01 1.480625000000E+02 6.232562510445E-01-5.669164714894E-09
    -2.135803250493E-10 5.210000000000E+02 2.036000000000E+03 0.000000000000E+00
     3.120000000000E+00 0.000000000000E+00-1.862645149231E-09-2.095475792885E-09
     1.842850000000E+05 0.000000000000E+00 0.000000000000E+00 0.000000000000E+00
E04 2019 01 15 03 00 00-2.002640976571E-04-7.887024366937E-12 0.000000000000E+00
     5.000000000000E+01-5.950000000000E+01 3.348710915822E-09-2.554894349376E-01
    -2.754852175713E-06 7.271801587194E-05 8.817762136459E-06 5.440615165710E+03
     1.836000000000E+05 4.470348358154E-08 1.119824444497E+00-1.341104507446E-07
     9.524734202611E-01 1.499375000000E+02 2.148648083040E+00-5.663807348881E-09
    -3.250135381184E-10 5.210000000000E+02 2.036000000000E+03 0.000000000000E+00
     3.120000000000E+00 0.000000000000E+00-7.916241884232E-09-8.847564458847E-09
     1.842850000000E+05 0.000000000000E+00 0.000000000000E+00 0.000000000000E+00
E05 2019 01 15 03 00 00 1.248813932762E-04-6.551204023708E-12 0.000000000000E+00
     5.000000000000E+01-4.006250000000E+01 3.281565261794E-09-1.309298808728E+00
    -1.860782504082E-06 1.327402424067E-04 8.886680006981E-06 5.440617752075E+03
     1.836000000000E+05-9.313225746155E-09 1.119755527889E+00 4.284083843231E-08
     9.524425892626E-01 1.466562500000E+02 1.629229262796E+00-5.647735250843E-09
    -1.575065607805E-10 5.210000000000E+02 2.036000000000E+03 0.000000000000E+00
     3.120000000000E+00 0.000000000000E+00-1.396983861923E-09-1.396983861923E-09
     1.842850000000E+05 0.000000000000E+00 0.000000000000E+00 0.000000000000E+00
E08 2019 01 15 03 00 00 6.423221726436E-03-7.545963853772E-12 0.000000000000E+00
     5.000000000000E+01-3.037500000000E+01 3.261921586413E-09-1.720263525687E+00
    -1.445412635803E-06 2.102756407112E-04 9.212642908096E-06 5.440614164352E+03
     1.836000000000E+05 2.048909664154E-08 1.111172941545E+00 5.587935447693E-09
     9.584153692528E-01 1.430937500000E+02 4.688711297246E-01-5.593804432979E-09
    -2.650110387735E-10 5.210000000000E+02 2.036000000000E+03 0.000000000000E+00
     3.120000000000E+00 0.000000000000E+00-8.614733815193E-09-9.778887033463E-09
     1.842850000000E+05 0.000000000000E+00 0.000000000000E+00 0.000000000000E+00
E12 2019 01 15 03 00 00 5.944917735178E-03 8.428457931586E-11 0.000000000000E+00
     5.000000000000E+01-4.675000000000E+01 2.841189775530E-09-1.444415635606E+00
    -2.050772309303E-06 4.053671145812E-04 8.815899491310E-06 5.440603927612E+03
     1.836000000000E+05 8.009374141693E-08-9.855641166557E-01-5.774199962616E-08
     9.820010465481E-01 1.595625000000E+02-8.356582120388E-01-5.485942797252E-09
     1.689356082747E-10 5.210000000000E+02 2.036000000000E+03 0.000000000000E+00
     3.120000000000E+00 0.000000000000E+00-1.559965312481E-08-1.606531441212E-08
     1.842850000000E+05 0.000000000000E+00 0.000000000000E+00 0.000000000000E+00
E13 2019 01 15 03 00 00 3.817455726676E-04 4.973799150321E-13 0.000000000000E+00
     5.000000000000E+01-2.518750000000E+01 2.693326473573E-09 1.541788327547E+00
    -1.234933733940E-06 3.460298758000E-04 9.719282388687E-06 5.440604104996E+03
     1.836000000000E+05-1.676380634308E-08-9.908305295772E-01 2.235174179077E-08
     9.852293029837E-01 1.403750000000E+02-1.477314686807E+00-5.442369553680E-09
     1.971510692762E-10 5.210000000000E+02 2.036000000000E+03 0.000000000000E+00
     3.120000000000E+00 4.550000000000E+02-4.423782229424E-09-5.355104804039E-09
     1.842850000000E+05 0.000000000000E+00 0.000000000000E+00 0.000000000000E+00
E14 2019 01 15 03 00 00 6.459766882472E-03-5.556444193644E-12 0.000000000000E+00
     5.000000000000E+01-1.556250000000E+01 6.891358481313E-09-4.307142763385E-01
    -5.606561899185E-07 1.662553780479E-01 9.257346391678E-06 5.289317993164E+03
     1.836000000000E+05-2.166256308556E-06-1.587912210849E+00 6.426125764847E-07
     8.826338823183E-01 1.853125000000E+02 1.458242459960E+00-1.179084827902E-08
     4.714482091388E-11 5.210000000000E+02 2.036000000000E+03 0.000000000000E+00
     3.120000000000E+00 4.550000000000E+02 3.306195139885E-08 3.702007234097E-08
     1.842850000000E+05 0.000000000000E+00 0.000000000000E+00 0.000000000000E+00
E19 2019 01 15 03 00 00-9.114388376474E-06 2.842170943040E-13 0.000000000000E+00
     5.000000000000E+01-5.018750000000E+01 3.339424814733E-09 3.673172087161E-01
    -2.330169081688E-06 1.327197533101E-04 9.296461939812E-06 5.440612926483E+03
     1.836000000000E+05 6.332993507385E-08 1.116525245312E+00-2.793967723846E-08
     9.582013999287E-01 1.397187500000E+02 2.386409723087E+00-5.697737333630E-09
    -3.035840740667E-10 5.210000000000E+02 2.036000000000E+03 0.000000000000E+00
     3.120000000000E+00 0.000000000000E+00-8.614733815193E-09-9.080395102501E-09
     1.842850000000E+05 0.000000000000E+00 0.000000000000E+00 0.000000000000E+00
E24 2019 01 15 03 00 00 6.285448849667E-03-1.972466634470E-11 0.000000000000E+00
     5.000000000000E+01 7.625000000000E+01 2.954765935004E-09-1.522200119254E+00
     3.561377525330E-06 4.776817513630E-04 4.250556230545E-06 5.440612474442E+03
     1.836000000000E+05-1.862645149231E-08-3.067392310459E+00 5.029141902924E-08
     9.876656409012E-01 2.590000000000E+02 5.316420742606E-01-5.672379134502E-09
     9.393248409357E-11 5.210000000000E+02 2.036000000000E+03 0.000000000000E+00
     3.120000000000E+00 0.000000000000E+00 4.260800778866E-08 4.796311259270E-08
     1.842850000000E+05 0.000000000000E+00 0.000000000000E+00 0.000000000000E+00
E26 2019 01 15 03 00 00 5.018550669774E-03-4.332889602665E-11 0.000000000000E+00
     5.000000000000E+01-3.259375000000E+01 2.803688213439E-09 1.252690570448E+00
    -1.532956957817E-06 3.175524761900E-04 1.019984483719E-05 5.440610898972E+03
     1.836000000000E+05 1.862645149231E-09-9.819350162777E-01 3.539025783539E-08
     9.783457379927E-01 1.299062500000E+02-1.970335058147E+00-5.462370386795E-09
     2.353669468352E-10 5.210000000000E+02 2.036000000000E+03 0.000000000000E+00
     3.120000000000E+00 0.000000000000E+00 1.164153218269E-09 1.396983861923E-09
     1.842850000000E+05 0.000000000000E+00 0.000000000000E+00 0.000000000000E+00
E30 2019 01 15 03 00 00 5.187670642044E-03-3.045386165468E-11 0.000000000000E+00
     5.000000000000E+01 6.200000000000E+01 2.994053285766E-09 2.313675743207E+00
     2.989545464516E-06 3.142246278003E-04 4.330649971962E-06 5.440614089966E+03
     1.836000000000E+05 2.048909664154E-08-3.067448406053E+00-2.048909664154E-08
     9.876501208033E-01 2.603125000000E+02 6.252659801064E-01-5.662735875679E-09
     4.143029716675E-11 5.210000000000E+02 2.036000000000E+03 0.000000000000E+00
     3.120000000000E+00 0.000000000000E+00-3.026798367500E-09-3.725290298462E-09
     1.842850000000E+05 0.000000000000E+00 0.000000000000E+00 0.000000000000E+00
E33 2019 01 15 03 00 00 8.479203097522E-04 2.842170943040E-14 0.000000000000E+00
     5.000000000000E+01-4.687500000000E+01 2.703326890130E-09-1.073134324123E-01
    -2.058222889900E-06 3.741362597793E-04 1.004710793495E-05 5.440604259491E+03
     1.836000000000E+05 4.656612873077E-08-9.908669430711E-01 6.891787052155E-08
     9.852246040908E-01 1.370625000000E+02-1.401719214295E+00-5.450584181566E-09
     2.364384200378E-10 5.210000000000E+02 2.036000000000E+03 0.000000000000E+00
     3.120000000000E+00 4.550000000000E+02-8.149072527885E-09-9.313225746155E-09
     1.842850000000E+05 0.000000000000E+00 0.000000000000E+00 0.000000000000E+00
